start=new Date('2021-09-02T00:00:00.000Z').valueOf();
sats=[{"RCS_SIZE":"LARGE","TLE_LINE2":"2 46035  53.0546 333.4249 0000949 115.3189 244.7898 15.06386978 60215","ARG_OF_PERICENTER":"115.3189","INCLINATION":"53.0546","CLASSIFICATION_TYPE":"U","TIME_SYSTEM":"UTC","TLE_LINE1":"1 46035U 20055J   21244.76611400  .00001751  00000-0  13648-3 0  9997","MEAN_MOTION":"15.06386978","MEAN_MOTION_DDOT":"0.0000000000000","OBJECT_NAME":"STARLINK-1558","SITE":"AFETR","CENTER_NAME":"EARTH","ELEMENT_SET_NO":"999","REV_AT_EPOCH":"6021","ECCENTRICITY":"0.00009490","EPOCH":"2021-09-01T18:23:12.249600","OBJECT_TYPE":"PAYLOAD","PERIOD":"95.593","APOAPSIS":"547.911","SEMIMAJOR_AXIS":"6925.388","MEAN_ELEMENT_THEORY":"SGP4","COUNTRY_CODE":"US","GP_ID":"183924475","BSTAR":"0.00013648000000","LAUNCH_DATE":"2020-08-07","FILE":"3107096","REF_FRAME":"TEME","MEAN_MOTION_DOT":"0.00001751","PERIAPSIS":"546.596","MEAN_ANOMALY":"244.7898","RA_OF_ASC_NODE":"333.4249","DECAY_DATE":null,"EPHEMERIS_TYPE":"0","NORAD_CAT_ID":"46035","OBJECT_ID":"2020-055J"},{"MEAN_MOTION":"15.06375407","OBJECT_NAME":"STARLINK-1560","MEAN_MOTION_DDOT":"0.0000000000000","ELEMENT_SET_NO":"999","REV_AT_EPOCH":"6019","SITE":"AFETR","CENTER_NAME":"EARTH","RCS_SIZE":"LARGE","ARG_OF_PERICENTER":"115.0543","TLE_LINE2":"2 46036  53.0544 334.0874 0000990 115.0543 245.0549 15.06375407 60191","TIME_SYSTEM":"UTC","TLE_LINE1":"1 46036U 20055K   21244.61869203  .00001547  00000-0  12279-3 0  9990","INCLINATION":"53.0544","CLASSIFICATION_TYPE":"U","APOAPSIS":"547.975","SEMIMAJOR_AXIS":"6925.424","EPOCH":"2021-09-01T14:50:54.991392","ECCENTRICITY":"0.00009900","PERIOD":"95.594","OBJECT_TYPE":"PAYLOAD","LAUNCH_DATE":"2020-08-07","REF_FRAME":"TEME","FILE":"3107096","MEAN_MOTION_DOT":"0.00001547","COUNTRY_CODE":"US","MEAN_ELEMENT_THEORY":"SGP4","GP_ID":"183925224","BSTAR":"0.00012279000000","EPHEMERIS_TYPE":"0","DECAY_DATE":null,"OBJECT_ID":"2020-055K","NORAD_CAT_ID":"46036","PERIAPSIS":"546.603","MEAN_ANOMALY":"245.0549","RA_OF_ASC_NODE":"334.0874"},{"OBJECT_TYPE":"PAYLOAD","PERIOD":"95.594","EPOCH":"2021-09-01T11:34:31.700640","ECCENTRICITY":"0.00013790","SEMIMAJOR_AXIS":"6925.423","APOAPSIS":"548.243","ARG_OF_PERICENTER":"115.6725","TLE_LINE2":"2 46037  53.0561 334.6975 0001379 115.6725 244.4406 15.06375847 60169","TLE_LINE1":"1 46037U 20055L   21244.48231135  .00000815  00000-0  73623-4 0  9991","TIME_SYSTEM":"UTC","CLASSIFICATION_TYPE":"U","INCLINATION":"53.0561","RCS_SIZE":"LARGE","OBJECT_NAME":"STARLINK-1565","MEAN_MOTION_DDOT":"0.0000000000000","ELEMENT_SET_NO":"999","REV_AT_EPOCH":"6016","CENTER_NAME":"EARTH","SITE":"AFETR","MEAN_MOTION":"15.06375847","MEAN_ANOMALY":"244.4406","RA_OF_ASC_NODE":"334.6975","PERIAPSIS":"546.333","OBJECT_ID":"2020-055L","NORAD_CAT_ID":"46037","EPHEMERIS_TYPE":"0","DECAY_DATE":null,"GP_ID":"183875455","BSTAR":"0.00007362300000","COUNTRY_CODE":"US","MEAN_ELEMENT_THEORY":"SGP4","REF_FRAME":"TEME","FILE":"3106942","MEAN_MOTION_DOT":"0.00000815","LAUNCH_DATE":"2020-08-07"},{"REF_FRAME":"TEME","FILE":"3106942","MEAN_MOTION_DOT":"0.00001866","LAUNCH_DATE":"2020-08-07","GP_ID":"183876193","BSTAR":"0.00014423000000","COUNTRY_CODE":"US","MEAN_ELEMENT_THEORY":"SGP4","OBJECT_ID":"2020-055M","NORAD_CAT_ID":"46038","EPHEMERIS_TYPE":"0","DECAY_DATE":null,"MEAN_ANOMALY":"242.6813","RA_OF_ASC_NODE":"334.3370","PERIAPSIS":"546.423","OBJECT_NAME":"STARLINK-1567","MEAN_MOTION_DDOT":"0.0000000000000","REV_AT_EPOCH":"6017","ELEMENT_SET_NO":"999","CENTER_NAME":"EARTH","SITE":"AFETR","MEAN_MOTION":"15.06379984","ARG_OF_PERICENTER":"117.4302","TLE_LINE2":"2 46038  53.0559 334.3370 0001230 117.4302 242.6813 15.06379984 60179","TIME_SYSTEM":"UTC","TLE_LINE1":"1 46038U 20055M   21244.56339815  .00001866  00000-0  14423-3 0  9994","INCLINATION":"53.0559","CLASSIFICATION_TYPE":"U","RCS_SIZE":"LARGE","SEMIMAJOR_AXIS":"6925.410","APOAPSIS":"548.127","OBJECT_TYPE":"PAYLOAD","PERIOD":"95.593","EPOCH":"2021-09-01T13:31:17.600160","ECCENTRICITY":"0.00012300"},{"SEMIMAJOR_AXIS":"6925.410","APOAPSIS":"548.201","PERIOD":"95.593","OBJECT_TYPE":"PAYLOAD","EPOCH":"2021-09-01T18:28:31.689408","ECCENTRICITY":"0.00013370","REV_AT_EPOCH":"6020","ELEMENT_SET_NO":"999","CENTER_NAME":"EARTH","SITE":"AFETR","OBJECT_NAME":"STARLINK-1569","MEAN_MOTION_DDOT":"0.0000000000000","MEAN_MOTION":"15.06380001","TLE_LINE1":"1 46039U 20055N   21244.76981122  .00001300  00000-0  10623-3 0  9992","TIME_SYSTEM":"UTC","CLASSIFICATION_TYPE":"U","INCLINATION":"53.0556","ARG_OF_PERICENTER":"120.4460","TLE_LINE2":"2 46039  53.0556 333.4104 0001337 120.4460 239.6661 15.06380001 60202","RCS_SIZE":"LARGE","OBJECT_ID":"2020-055N","NORAD_CAT_ID":"46039","EPHEMERIS_TYPE":"0","DECAY_DATE":null,"RA_OF_ASC_NODE":"333.4104","MEAN_ANOMALY":"239.6661","PERIAPSIS":"546.349","MEAN_MOTION_DOT":"0.00001300","REF_FRAME":"TEME","FILE":"3107096","LAUNCH_DATE":"2020-08-07","BSTAR":"0.00010623000000","GP_ID":"183924975","COUNTRY_CODE":"US","MEAN_ELEMENT_THEORY":"SGP4"},{"COUNTRY_CODE":"US","MEAN_ELEMENT_THEORY":"SGP4","BSTAR":"0.00019644000000","GP_ID":"183924725","LAUNCH_DATE":"2020-08-07","MEAN_MOTION_DOT":"0.00002646","REF_FRAME":"TEME","FILE":"3107096","PERIAPSIS":"546.398","RA_OF_ASC_NODE":"333.5730","MEAN_ANOMALY":"233.8624","EPHEMERIS_TYPE":"0","DECAY_DATE":null,"OBJECT_ID":"2020-055P","NORAD_CAT_ID":"46040","RCS_SIZE":"LARGE","TLE_LINE1":"1 46040U 20055P   21244.73291898  .00002646  00000-0  19644-3 0  9991","TIME_SYSTEM":"UTC","INCLINATION":"53.0562","CLASSIFICATION_TYPE":"U","ARG_OF_PERICENTER":"126.2472","TLE_LINE2":"2 46040  53.0562 333.5730 0001158 126.2472 233.8624 15.06404493 60167","MEAN_MOTION":"15.06404493","ELEMENT_SET_NO":"999","REV_AT_EPOCH":"6016","SITE":"AFETR","CENTER_NAME":"EARTH","OBJECT_NAME":"STARLINK-1576","MEAN_MOTION_DDOT":"0.0000000000000","EPOCH":"2021-09-01T17:35:24.199872","ECCENTRICITY":"0.00011580","PERIOD":"95.592","OBJECT_TYPE":"PAYLOAD","APOAPSIS":"548.002","SEMIMAJOR_AXIS":"6925.335"},{"MEAN_ELEMENT_THEORY":"SGP4","COUNTRY_CODE":"US","BSTAR":"0.00014524000000","GP_ID":"183925474","LAUNCH_DATE":"2020-08-07","MEAN_MOTION_DOT":"0.00001882","FILE":"3107096","REF_FRAME":"TEME","PERIAPSIS":"546.544","RA_OF_ASC_NODE":"333.5595","MEAN_ANOMALY":"246.5495","DECAY_DATE":null,"EPHEMERIS_TYPE":"0","NORAD_CAT_ID":"46041","OBJECT_ID":"2020-055Q","RCS_SIZE":"LARGE","INCLINATION":"53.0563","CLASSIFICATION_TYPE":"U","TIME_SYSTEM":"UTC","TLE_LINE1":"1 46041U 20055Q   21244.73568927  .00001882  00000-0  14524-3 0  9995","TLE_LINE2":"2 46041  53.0563 333.5595 0001051 113.5604 246.5495 15.06380947 60171","ARG_OF_PERICENTER":"113.5604","MEAN_MOTION":"15.06380947","CENTER_NAME":"EARTH","SITE":"AFETR","REV_AT_EPOCH":"6017","ELEMENT_SET_NO":"999","MEAN_MOTION_DDOT":"0.0000000000000","OBJECT_NAME":"STARLINK-1580","ECCENTRICITY":"0.00010510","EPOCH":"2021-09-01T17:39:23.552928","OBJECT_TYPE":"PAYLOAD","PERIOD":"95.593","APOAPSIS":"548.000","SEMIMAJOR_AXIS":"6925.407"},{"RCS_SIZE":"LARGE","ARG_OF_PERICENTER":"106.5327","TLE_LINE2":"2 46042  53.0562 333.6362 0001059 106.5327 253.5778 15.06386344 60164","TLE_LINE1":"1 46042U 20055R   21244.71820157  .00001697  00000-0  13282-3 0  9994","TIME_SYSTEM":"UTC","INCLINATION":"53.0562","CLASSIFICATION_TYPE":"U","MEAN_MOTION":"15.06386344","OBJECT_NAME":"STARLINK-1581","MEAN_MOTION_DDOT":"0.0000000000000","ELEMENT_SET_NO":"999","REV_AT_EPOCH":"6016","SITE":"AFETR","CENTER_NAME":"EARTH","EPOCH":"2021-09-01T17:14:12.615648","ECCENTRICITY":"0.00010590","PERIOD":"95.593","OBJECT_TYPE":"PAYLOAD","APOAPSIS":"547.989","SEMIMAJOR_AXIS":"6925.390","COUNTRY_CODE":"US","MEAN_ELEMENT_THEORY":"SGP4","GP_ID":"183926227","BSTAR":"0.00013282000000","LAUNCH_DATE":"2020-08-07","REF_FRAME":"TEME","FILE":"3107096","MEAN_MOTION_DOT":"0.00001697","PERIAPSIS":"546.522","MEAN_ANOMALY":"253.5778","RA_OF_ASC_NODE":"333.6362","EPHEMERIS_TYPE":"0","DECAY_DATE":null,"OBJECT_ID":"2020-055R","NORAD_CAT_ID":"46042"},{"DECAY_DATE":null,"EPHEMERIS_TYPE":"0","NORAD_CAT_ID":"46043","OBJECT_ID":"2020-055S","PERIAPSIS":"546.504","RA_OF_ASC_NODE":"333.6688","MEAN_ANOMALY":"241.5127","LAUNCH_DATE":"2020-08-07","MEAN_MOTION_DOT":"0.00001364","FILE":"3107096","REF_FRAME":"TEME","MEAN_ELEMENT_THEORY":"SGP4","COUNTRY_CODE":"US","BSTAR":"0.00011045000000","GP_ID":"183924476","APOAPSIS":"548.007","SEMIMAJOR_AXIS":"6925.391","ECCENTRICITY":"0.00010850","EPOCH":"2021-09-01T17:03:35.126208","OBJECT_TYPE":"PAYLOAD","PERIOD":"95.593","MEAN_MOTION":"15.06386266","SITE":"AFETR","CENTER_NAME":"EARTH","REV_AT_EPOCH":"6019","ELEMENT_SET_NO":"999","MEAN_MOTION_DDOT":"0.0000000000000","OBJECT_NAME":"STARLINK-1582","RCS_SIZE":"LARGE","INCLINATION":"53.0560","CLASSIFICATION_TYPE":"U","TIME_SYSTEM":"UTC","TLE_LINE1":"1 46043U 20055S   21244.71082322  .00001364  00000-0  11045-3 0  9995","TLE_LINE2":"2 46043  53.0560 333.6688 0001085 118.5971 241.5127 15.06386266 60192","ARG_OF_PERICENTER":"118.5971"},{"TLE_LINE2":"2 46044  53.0555 333.5987 0001156 107.5999 252.5117 15.06395635 60208","ARG_OF_PERICENTER":"107.5999","CLASSIFICATION_TYPE":"U","INCLINATION":"53.0555","TLE_LINE1":"1 46044U 20055T   21244.72555743  .00002078  00000-0  15838-3 0  9996","TIME_SYSTEM":"UTC","RCS_SIZE":"LARGE","MEAN_MOTION_DDOT":"0.0000000000000","OBJECT_NAME":"STARLINK-1584","CENTER_NAME":"EARTH","SITE":"AFETR","ELEMENT_SET_NO":"999","REV_AT_EPOCH":"6020","MEAN_MOTION":"15.06395635","PERIOD":"95.592","OBJECT_TYPE":"PAYLOAD","ECCENTRICITY":"0.00011560","EPOCH":"2021-09-01T17:24:48.161952","SEMIMAJOR_AXIS":"6925.362","APOAPSIS":"548.028","GP_ID":"183925225","BSTAR":"0.00015838000000","MEAN_ELEMENT_THEORY":"SGP4","COUNTRY_CODE":"US","FILE":"3107096","REF_FRAME":"TEME","MEAN_MOTION_DOT":"0.00002078","LAUNCH_DATE":"2020-08-07","MEAN_ANOMALY":"252.5117","RA_OF_ASC_NODE":"333.5987","PERIAPSIS":"546.426","NORAD_CAT_ID":"46044","OBJECT_ID":"2020-055T","DECAY_DATE":null,"EPHEMERIS_TYPE":"0"}];
